NOAA 1 [-]              
1 04793U 70106A   22098.94032133 -.00000046  00000+0 -16632-4 0  9996
2 04793 101.5627 164.4833 0032059  98.0578  75.4125 12.54003976348873
NOAA 2 (ITOS-D) [-]     
1 06235U 72082A   22098.92686711 -.00000017  00000+0  18255-3 0  9998
2 06235 101.9482  80.7408 0003853 203.3654 212.6014 12.53144939263268
NOAA 3 [-]              
1 06920U 73086A   22098.94119139 -.00000018  00000+0  20474-3 0  9998
2 06920 102.2021  80.2795 0006794  59.6894   2.6146 12.40347122192170
NOAA 4 [-]              
1 07529U 74089A   22098.90664719 -.00000018  00000+0  17477-3 0  9992
2 07529 101.9078  78.3541 0008653 236.3696 179.0883 12.53156116167838
NOAA 5 [-]              
1 09057U 76077A   22099.19999104  .00000004  00000+0  38033-3 0  9995
2 09057 102.0915  67.9440 0009498 267.5543 101.6777 12.37769046 65390
TIROS N [-]             
1 11060U 78096A   22099.14449312  .00000107  00000+0  72881-4 0  9995
2 11060  98.6435 154.6996 0010203 349.1126  10.9828 14.18366329462022
NOAA 6 [-]              
1 11416U 79057A   22099.03409191  .00000261  00000+0  10996-3 0  9996
2 11416  98.6674 109.7716 0011465 102.7739 257.4727 14.33720640231787
NOAA 7 [-]              
1 12553U 81059A   22099.11840234  .00000013  00000+0  29345-4 0  9994
2 12553  99.0082 142.6444 0010684 316.4982  43.5348 14.17321082108198
NOAA 8 [-]              
1 13923U 83022A   22098.88810693  .00000149  00000+0  76813-4 0  9999
2 13923  98.6841  89.7142 0016053  55.3894 304.8799 14.28786563 32472
NOAA 9 [-]              
1 15427U 84123A   22099.20324163  .00000128  00000+0  88094-4 0  9993
2 15427  99.0388  70.5252 0014995   5.7549   4.4245 14.16181858927041
NOAA 10 [-]             
1 16969U 86073A   22098.88379153  .00000126  00000+0  67785-4 0  9995
2 16969  98.5641  86.3351 0012668 151.8937 268.4407 14.28180814850909
NOAA 11 [-]             
1 19531U 88089A   22098.91895653  .00000057  00000+0  50055-4 0  9999
2 19531  98.4215  91.8319 0011600  24.8846 335.2886 14.15299500730989
NOAA 12 [-]             
1 21263U 91032A   22098.88680947  .00000073  00000+0  48524-4 0  9996
2 21263  98.5145 100.6618 0013693 178.0545 182.0691 14.25977949606817
NOAA 13 [-]             
1 22739U 93050A   22098.90169202  .00000100  00000+0  75631-4 0  9996
2 22739  98.4997  82.1890 0009488 175.9117 184.2135 14.12825853477235
NOAA 14 [-]             
1 23455U 94089A   22098.86448892  .00000032  00000+0  38395-4 0  9995
2 23455  98.4559 129.3009 0009917 158.1411 202.0188 14.14187622406874
NOAA 15 [B]             
1 25338U 98030A   22099.17196267  .00000143  00000+0  78159-4 0  9993
2 25338  98.6522 129.5889 0011274 135.7740 224.4343 14.26106183243394
NOAA 16 [-]             
1 26536U 00055A   22098.87658036  .00000071  00000+0  60402-4 0  9999
2 26536  98.6439 160.1544 0010568  10.8254 349.3144 14.13314345407529
NOAA 17 [-]             
1 27453U 02032A   22098.85503410  .00000104  00000+0  63083-4 0  9993
2 27453  98.6654  44.9520 0012877 112.0956 248.1592 14.25104168 28940
NOAA 18 [B]             
1 28654U 05018A   22099.15239692  .00000159  00000+0  10989-3 0  9992
2 28654  98.9539 169.6310 0014758 163.8066 196.3580 14.12710058870287
NOAA 19 [+]             
1 33591U 09005A   22099.21665580  .00000156  00000+0  10949-3 0  9997
2 33591  99.1564 131.8728 0014221  26.5827 333.6070 14.12546418678679
SUOMI NPP [+]           
1 37849U 11061A   22099.11515977  .00000071  00000+0  54459-4 0  9996
2 37849  98.7275  38.6459 0001125  97.9686 272.2459 14.19554936541356
NOAA 20 [+]             
1 43013U 17073A   22099.21911144  .00000082  00000+0  59965-4 0  9991
2 43013  98.7515  38.7953 0000675  87.9842 272.1411 14.19538239227407
